GPS BIIR-2  (PRN 13)    
1 24876U 97035A   24341.78723316  .00000074  00000+0  00000+0 0  9991
2 24876  55.7315 120.3819 0086104  54.9526 305.8337  2.00561880200774
GPS BIIR-4  (PRN 20)    
1 26360U 00025A   24342.23438687 -.00000060  00000+0  00000+0 0  9995
2 26360  54.7997  41.8425 0040045 223.7860 189.5160  2.00566218180105
GPS BIIR-5  (PRN 22)    
1 26407U 00040A   24342.12741703  .00000017  00000+0  00000+0 0  9999
2 26407  55.0003 237.3049 0138727 297.4886 235.7136  2.00562574178772
GPS BIIR-8  (PRN 16)    
1 27663U 03005A   24342.44493796  .00000016  00000+0  00000+0 0  9998
2 27663  55.0369 237.1033 0141612  48.6119 134.9136  2.00564933160148
GPS BIIR-9  (PRN 21)    
1 27704U 03010A   24342.45741802 -.00000057  00000+0  00000+0 0  9991
2 27704  55.0579 346.7928 0258457 331.9790  76.1082  2.00568890158944
GPS BIIR-11 (PRN 19)    
1 28190U 04009A   24342.22714420 -.00000035  00000+0  00000+0 0  9997
2 28190  55.3058 298.1168 0098668 155.4393  22.9335  2.00572832151774
GPS BIIR-13 (PRN 02)    
1 28474U 04045A   24342.49165510 -.00000057  00000+0  00000+0 0  9995
2 28474  55.3878 347.2694 0166729 297.5986 118.7394  2.00562925147269
GPS BIIRM-1 (PRN 17)    
1 28874U 05038A   24341.73539001 -.00000031  00000+0  00000+0 0  9990
2 28874  55.3517 295.6031 0136779 287.4575 282.5038  2.00573683140652
GPS BIIRM-2 (PRN 31)    
1 29486U 06042A   24342.59649315  .00000108  00000+0  00000+0 0  9995
2 29486  54.6783 173.4164 0105574  43.8479 327.8712  2.00571855133232
GPS BIIRM-3 (PRN 12)    
1 29601U 06052A   24342.00178046  .00000020  00000+0  00000+0 0  9992
2 29601  55.0728 236.1109 0086848  83.4826 277.5789  2.00550474132237
GPS BIIRM-4 (PRN 15)    
1 32260U 07047A   24342.31124585  .00000039  00000+0  00000+0 0  9995
2 32260  53.7076 103.0788 0159402  79.0388 282.7358  2.00556101125649
GPS BIIRM-5 (PRN 29)    
1 32384U 07062A   24342.27116755 -.00000034  00000+0  00000+0 0  9990
2 32384  55.4944 296.4706 0027699 156.8395 302.3646  2.00556318124345
GPS BIIRM-6 (PRN 07)    
1 32711U 08012A   24342.72022508  .00000109  00000+0  00000+0 0  9994
2 32711  54.4539 172.1321 0190827 240.5317 117.5954  2.00573481122593
GPS BIIRM-8 (PRN 05)    
1 35752U 09043A   24342.22049160 -.00000052  00000+0  00000+0 0  9993
2 35752  55.8145  49.4171 0054179  75.9319 294.1316  2.00559300112192
GPS BIIF-1  (PRN 25)    
1 36585U 10022A   24342.21106830  .00000026  00000+0  00000+0 0  9994
2 36585  54.3892 231.0176 0119741  62.6515  57.8021  2.00560221106422
GPS BIIF-3  (PRN 24)    
1 38833U 12053A   24341.90945265  .00000104  00000+0  00000+0 0  9993
2 38833  53.5241 166.4101 0161635  58.9584 302.6547  2.00560837 88269
GPS BIIF-4  (PRN 27)    
1 39166U 13023A   24342.27007038 -.00000033  00000+0  00000+0 0  9991
2 39166  54.9647 291.5942 0128150  45.2058 315.8340  2.00562160 84711
GPS BIIF-5  (PRN 30)    
1 39533U 14008A   24342.26690098  .00000104  00000+0  00000+0 0  9994
2 39533  53.6039 172.0191 0073244 220.3749 139.1234  2.00551966 78517
GPS BIIF-6  (PRN 06)    
1 39741U 14026A   24342.05120514 -.00000056  00000+0  00000+0 0  9990
2 39741  56.6905 353.1676 0035227 313.9611  45.7865  2.00555917 77363
GPS BIIF-7  (PRN 09)    
1 40105U 14045A   24342.13401911  .00000056  00000+0  00000+0 0  9998
2 40105  55.0149 110.6969 0029578 118.0464 242.2374  2.00577530 74906
GPS BIIF-8  (PRN 03)    
1 40294U 14068A   24342.01384612 -.00000047  00000+0  00000+0 0  9998
2 40294  56.5664  52.5110 0054366  65.1376 295.4743  2.00570733 74034
GPS BIIF-9  (PRN 26)    
1 40534U 15013A   24342.14680894  .00000031  00000+0  00000+0 0  9993
2 40534  53.2871 227.2329 0095449  32.6865 327.9817  2.00555097 70650
GPS BIIF-10 (PRN 08)    
1 40730U 15033A   24342.30790563 -.00000033  00000+0  00000+0 0  9999
2 40730  54.4459 289.9804 0100276  20.9523 339.4614  2.00558050 68823
GPS BIIF-11 (PRN 10)    
1 41019U 15062A   24342.36795354 -.00000049  00000+0  00000+0 0  9998
2 41019  56.5454  52.3523 0101972 226.3925 132.8036  2.00562721 66667
GPS BIIF-12 (PRN 32)    
1 41328U 16007A   24341.95282558  .00000058  00000+0  00000+0 0  9991
2 41328  55.2042 111.5856 0083299 239.1206 120.0430  2.00553213 64662
GPS BIII-1  (PRN 04)    
1 43873U 18109A   24342.55780553  .00000064  00000+0  00000+0 0  9995
2 43873  55.3721 114.1757 0032410 192.9395 136.4171  2.00562085 43901
GPS BIII-2  (PRN 18)    
1 44506U 19056A   24342.47125262 -.00000059  00000+0  00000+0 0  9997
2 44506  55.8244 353.2275 0048638 194.2138 336.8541  2.00558217 38903
GPS BIII-3  (PRN 23)    
1 45854U 20041A   24342.55810812 -.00000052  00000+0  00000+0 0  9994
2 45854  56.2655  50.6306 0050104 197.0882 335.6548  2.00569417 32870
GPS BIII-4  (PRN 14)    
1 46826U 20078A   24342.59205488  .00000021  00000+0  00000+0 0  9990
2 46826  54.1175 233.3662 0051276 198.4080 332.2340  2.00559998 30341
GPS BIII-5  (PRN 11)    
1 48859U 21054A   24342.18147073 -.00000060  00000+0  00000+0 0  9997
2 48859  55.3531 354.8103 0019355 228.7671 190.4141  2.00574371 25587
GPS BIII-6  (PRN 28)    
1 55268U 23009A   24342.31562571  .00000108  00000+0  00000+0 0  9992
2 55268  55.0875 170.3805 0002462  73.4443 123.1375  2.00551759 14079
